#cP2022 10 19  0  0  0.00000000      96 ORBIT IGb14 HLM  IGS
## 2232 259200.00000000   900.00000000 59871 0.0000000000000
+   32   G01G02G03G04G05G06G07G08G09G10G11G12G13G14G15G16G17
+        G18G19G20G21G22G23G24G25G26G27G28G29G30G31G32  0  0
+          0  0  0  0  0  0  0  0  0  0  0  0  0  0  0  0  0
+          0  0  0  0  0  0  0  0  0  0  0  0  0  0  0  0  0
+          0  0  0  0  0  0  0  0  0  0  0  0  0  0  0  0  0
++         2  2  2  2  2  2  2  2  2  2  3  2  2  2  2  2  2
++         3  2  2  2  2  2  2  2  2  2  2  2  2  2  2  0  0
++         0  0  0  0  0  0  0  0  0  0  0  0  0  0  0  0  0
++         0  0  0  0  0  0  0  0  0  0  0  0  0  0  0  0  0
++         0  0  0  0  0  0  0  0  0  0  0  0  0  0  0  0  0
%c G  cc GPS ccc cccc cccc cccc cccc ccccc ccccc ccccc ccccc
%c cc cc ccc ccc cccc cccc cccc cccc ccccc ccccc ccccc ccccc
%f  1.2500000  1.025000000  0.00000000000  0.000000000000000
%f  0.0000000  0.000000000  0.00000000000  0.000000000000000
%i    0    0    0    0      0      0      0      0         0
%i    0    0    0    0      0      0      0      0         0
/* RAPID ORBIT COMBINATION FROM WEIGHTED AVERAGE OF:        
/* cod emr esa gfz jpl ngs sio usn whu                      
/* REFERENCED TO IGS TIME (IGST) AND TO WEIGHTED MEAN POLE: 
/* PCV:IGS14_2223 OL/AL:FES2004  NONE     Y  ORB:CMB CLK:CMB
*  2022 10 19 16 30  0.00000000
PG01 -13663.050877  20010.081319  10161.135362    264.996477  7  7  4  82       
PG02  12694.616220 -20089.806845 -11427.555368   -641.692806  7  8  8 111       
PG03 -21156.630782  12058.913885 -10600.182848   -366.079343  1  6  4 116       
PG04 -10145.034334  11437.754584 -21712.411866   -100.986041  4  4  8 110       
PG05  25920.923797  -5965.522636  -1387.494479   -101.013748  5  8  5  61       
PG06   8837.812716  15178.388472 -19833.973185    495.680797  2  5  4 121       
PG07  -4886.933878  25534.753667   4345.662526    297.069409  4  7  6  89       
PG08 -17499.510119   1889.315224  19955.544002    -89.638104  3  6  6  93       
PG09   1078.904839  19562.377414 -17994.567423   -281.001522  5  6  6 112       
PG10  -9748.738228 -12674.312359  21413.983960     -8.195188  5  5  8 101       
PG11  14819.612130   3465.227424 -21761.483242    -27.808083  8  5  8 109       
PG12  22057.048965 -10590.087136 -10471.815387   -294.140025  2  6  7  89       
PG13  19163.455370   7483.471733  16729.798814    408.990423  8  6  6 116       
PG14   7123.605666  14162.836124  21330.509562    -93.373608  6  7  4 110       
PG15  17371.702642  -4205.426631  19287.802113    -19.585973  5  4  3 109       
PG16 -25997.097041  -1250.483488  -6682.433179   -526.417721  4  5  9 110       
PG17  11524.811695  22704.229039   7874.625620    670.221134  4  5  4  81       
PG18   4612.174244 -25495.525692   5493.921336      9.013776  6 12  5 104       
PG19  17615.552428  19779.923959  -3605.828211    225.929513  6  5  5  91       
PG20  22398.571969   1888.676461 -13956.073411    477.069804  4  7  7  82       
PG21 -15616.732396  12084.707515  18003.513436    157.726384  6  7  3 110       
PG22 -18664.150402 -18187.515485  -5173.265614    348.633323  8  7  5  97       
PG23   2463.362419 -15652.732102  21284.332642     -1.080603  3  4  4 104       
PG24  14248.173306 -17228.627253  13683.910987     93.640308  7  7  7 116       
PG25  11798.676094 -15785.665699 -17966.341077    384.008920  2  7  4  93       
PG26 -20887.351658  -5950.138118 -15591.322133    233.016468  3  7  4 107       
PG27 -21094.917209  -9813.869308  12953.413101    195.218392  5  6  5 104       
PG28  15916.148967  10939.767751  18624.906066    326.895437  8  8  5 117       
PG29   1533.981994 -18600.271154 -18906.950282   -560.871057  7  8  6  84       
PG30   3552.439698  22209.898638  14017.209028   -537.199642  2  6  4  88       
PG31 -10305.655858 -13943.056249 -20139.452377   -197.342414  1  6  6 104       
PG32 -15165.669816 -21393.460785   4985.539445   -268.455182  5  7  4 107       
*  2022 10 19 16 45  0.00000000
PG01 -13450.634333  18658.372594  12666.084013    264.991157  7  7  4  85       
PG02  12597.163887 -18554.654216 -13749.335836   -641.691193  6  7  8  92       
PG03 -22221.272781  12128.235111  -7980.259500   -366.082813     6  4 112       
PG04 -11828.900285   9607.313566 -21756.276155   -100.980467  4  2  7 109       
PG05  25702.889679  -5650.457377  -4216.239261   -101.015075  5  7  4  81       
PG06   8144.409683  17262.571716 -18370.909612    495.690382  2  5  4 121       
PG07  -5271.686638  25731.916970   1506.922687    297.065699  4  6  6  87       
PG08 -19009.708607    277.876453  18652.840839    -89.640300  3  6  6  89       
PG09   -538.468046  18170.505044 -19431.006516   -280.996823  5  6  6 117       
PG10  -7393.955943 -13313.122042  21938.707428     -8.196785  6  5  8 104       
PG11  14027.584055   5827.337223 -21785.351069    -27.812230  8  5  7 118       
PG12  23096.601994 -10560.243112  -7860.981213   -294.144169  3  6  7  91       
PG13  20125.396356   9037.793168  14751.791629    408.996258  8  6  6 114       
PG14   4728.300443  14713.727957  21611.206150    -93.369942  6  8  5 107       
PG15  19026.918061  -2719.702016  18005.103399    -19.582965  6  4  4 116       
PG16 -25167.947355  -1571.612943  -9328.941086   -526.418313  4  6  8 116       
PG17  10732.805579  22072.808208  10504.184682    670.224284  4  5  5  83       
PG18   4964.501481 -25878.423889   2656.296441      9.001715  6 13  5 105       
PG19  17603.068143  20071.482912   -749.377371    225.934014  5  5  5  75       
PG20  20909.117699   2792.745244 -15987.675272    477.066567  5  6  7 100       
PG21 -15381.928699  10032.871788  19521.177090    157.725752  6  7  3 113       
PG22 -18783.385201 -18707.102908  -2368.889239    348.639502  8  6  5  98       
PG23   4778.724174 -16242.845793  20419.726358     -1.080762  4  4  4 112       
PG24  14184.205811 -15453.419644  15713.087246     93.627023  6  6  7 121       
PG25  13694.740128 -16109.932588 -16194.071828    384.012462  3  7  4  88       
PG26 -19169.052065  -6702.657881 -17371.027773    233.017506  4  7  5 120       
PG27 -21926.724316 -10904.611157  10549.449469    195.212315  6  6  4 103       
PG28  13839.242871  11391.268506  20021.175493    326.890562  8  7  5 114       
PG29   3042.135167 -16955.971904 -20234.333361   -560.873932  7  8  6  82       
PG30   2874.608497  23549.895466  11769.886677   -537.199567  3  6  5  90       
PG31  -9529.707439 -16026.594004 -18883.326569   -197.343407  2  6  6 103       
PG32 -14502.570286 -21058.974132   7702.062901   -268.465942  5  7  4 114       
*  2022 10 19 17  0  0.00000000
PG01 -13252.277017  17027.242319  14945.448232    264.985763  7  6  4  89       
PG02  12549.280057 -16760.778215 -15827.543827   -641.689736  5  6  8  87       
PG03 -22991.160125  12160.924785  -5222.742084   -366.086259     7  5 113       
PG04 -13593.793890   7879.393131 -21425.880689   -100.974864  4  1  8 111       
PG05  25206.303293  -5216.352441  -6973.179120   -101.016075  5  7  4  65       
PG06   7609.089673  19202.057079 -16589.274352    495.699971  3  5  3 121       
PG07  -5579.423047  25629.096963  -1358.455106    297.062484  4  6  6  99       
PG08 -20476.092137  -1141.506862  17031.806394    -89.642812  3  7  6  90       
PG09  -2332.482407  16769.661434 -20534.906013   -280.992115  5  6  6 114       
PG10  -5038.947720 -14093.122475  22092.077578     -8.198329  6  5  8 107       
PG11  13366.006146   8209.642771 -21434.281513    -27.816385  8  6  7 116       
PG12  23843.757113 -10511.805407  -5115.255532   -294.147999  4  7  7  86       
PG13  21014.939699  10353.236855  12519.296017    409.003009  8  6  6 107       
PG14   2352.504503  15388.251281  21520.402444    -93.366227  6  9  5 106       
PG15  20611.475672  -1410.508494  16404.603320    -19.580157  6  5  4 110       
PG16 -24078.208312  -1999.521941 -11820.671560   -526.418556  4  6  8 122       
PG17   9711.283309  21281.001074  12955.756406    670.227372  4  5  4  82       
PG18   5221.176144 -25962.863808   -227.442330      8.989493  6 13  5 114       
PG19  17390.570068  20123.962798   2119.735992    225.938643  5  5  5  77       
PG20  19275.531224   3865.477797 -17741.301573    477.063700  6  5  6 102       
PG21 -15234.968303   7830.798788  20711.936968    157.725487  6  7  4 115       
PG22 -18714.044309 -18983.539234    476.051050    348.645979  8  5  5 102       
PG23   6948.912417 -16916.729925  19202.403137     -1.080954  4  4  3 111       
PG24  14174.430941 -13462.755573  17460.865206     93.613798  6  5  7 119       
PG25  15371.139900 -16463.001847 -14145.419059    384.015972  4  7  5  88       
PG26 -17317.727988  -7605.226131 -18857.218603    233.018720  5  6  5 118       
PG27 -22607.149108 -11757.187565   7966.008957    195.206244  7  6  4 102       
PG28  11660.109702  11982.010932  21084.786415    326.885981  8  7  5 115       
PG29   4727.771737 -15302.860202 -21214.090881   -560.876311  6  8  5  90       
PG30   2320.412235  24662.861692   9318.261441   -537.199419  3  5  4  84       
PG31  -8896.470833 -17994.841783 -17301.448679   -197.344551  3  6  6 104       
PG32 -13601.242775 -20560.851901  10288.164951   -268.476769  6  7  4 106       
EOF
